NORAD_CAT_ID,OBJECT_NAME,OBJECT_TYPE,EPOCH,MEAN_MOTION,ECCENTRICITY,INCLINATION,RA_OF_ASC_NODE,ARG_OF_PERICENTER,MEAN_ANOMALY,BSTAR,MEAN_MOTION_DOT,MEAN_MOTION_DDOT,TLE_LINE0,TLE_LINE1,TLE_LINE2,SEMIMAJOR_AXIS,PERIOD,APOGEE,PERIGEE,DECAYED
53641.0,STARLINK-4588,PAYLOAD,2023-01-09 07:00:54,15.0885659,0.0001973,53.2185,10.6024,37.3945,322.7184,0.00058654,9.063e-05,0.0,0 STARLINK-4588,1 53641U 22104BF  23009.29229502  .00009063  00000-0  58654-3 0  9992,2 53641  53.2185  10.6024 0001973  37.3945 322.7184 15.08856590 21804,6917.83,95.437,541.06,538.33,0.0
53641.0,STARLINK-4588,PAYLOAD,2023-01-09 16:33:12,15.08856097,0.0001965,53.2197,8.8174,18.7882,341.3182,0.00038203,5.8e-05,0.0,0 STARLINK-4588,1 53641U 22104BF  23009.68973157  .00005800  00000-0  38203-3 0  9990,2 53641  53.2197   8.8174 0001965  18.7882 341.3182 15.08856097 20846,6917.831,95.437,541.056,538.337,0.0
53641.0,STARLINK-4588,PAYLOAD,2023-01-10 05:16:15,15.0888951,0.0001695,53.2185,6.4393,26.2868,333.821,-0.0011842,-0.00019111,0.0,0 STARLINK-4588,1 53641U 22104BF  23010.21962721 -.00019111  00000-0 -11842-2 0  9997,2 53641  53.2185   6.4393 0001695  26.2868 333.8210 15.08889510 20921,6917.729,95.434,540.7669999999998,538.422,0.0
53641.0,STARLINK-4588,PAYLOAD,2023-01-10 16:24:00,15.08838626,0.0002028,53.2165,4.3575,39.6151,320.4989,7.7886e-06,-1.64e-06,0.0,0 STARLINK-4588,1 53641U 22104BF  23010.68333635 -.00000164  00000-0  77886-5 0  9994,2 53641  53.2165   4.3575 0002028  39.6151 320.4989 15.08838626 20996,6917.885,95.438,541.153,538.347,0.0
53641.0,STARLINK-4588,PAYLOAD,2023-01-11 05:07:04,15.088629999999998,0.0002075,53.218,1.9787,45.7321,314.3841,0.0003162,4.751e-05,0.0,0 STARLINK-4588,1 53641U 22104BF  23011.21324271  .00004751  00000-0  31620-3 0  9999,2 53641  53.2180   1.9787 0002075  45.7321 314.3841 15.08863000 21073,6917.81,95.436,541.111,538.24,0.0
53641.0,STARLINK-4588,PAYLOAD,2023-01-11 06:42:27,15.08865528,0.00021,53.2172,1.6794,47.5555,312.5615,0.00048373,7.424e-05,0.0,0 STARLINK-4588,1 53641U 22104BF  23011.27948266  .00007424  00000-0  48373-3 0  9994,2 53641  53.2172   1.6794 0002100  47.5555 312.5615 15.08865528 22108,6917.802,95.436,541.12,538.215,0.0
53641.0,STARLINK-4588,PAYLOAD,2023-01-12 03:22:29,15.08826526,0.0001839,53.2165,357.8143,49.3546,310.7606,-0.00018824,-3.282e-05,0.0,0 STARLINK-4588,1 53641U 22104BF  23012.14061925 -.00003282  00000-0 -18824-3 0  9997,2 53641  53.2165 357.8143 0001839  49.3546 310.7606 15.08826526 21218,6917.922,95.438,541.059,538.514,0.0
53641.0,STARLINK-4588,PAYLOAD,2023-01-12 22:27:07,15.08830871,0.0002024,53.2185,354.2481,59.133,300.9861,-9.7155e-05,-1.834e-05,0.0,0 STARLINK-4588,1 53641U 22104BF  23012.93550594 -.00001834  00000-0 -97155-4 0  9995,2 53641  53.2185 354.2481 0002024  59.1330 300.9861 15.08830871 22351,6917.908,95.438,541.173,538.373,0.0
53641.0,STARLINK-4588,PAYLOAD,2023-01-13 03:13:17,15.08836048,0.0001868,53.2177,353.3568,58.5456,301.5719,2.7699e-05,1.53e-06,0.0,0 STARLINK-4588,1 53641U 22104BF  23013.13422471  .00000153  00000-0  27699-4 0  9997,2 53641  53.2177 353.3568 0001868  58.5456 301.5719 15.08836048 21366,6917.892,95.438,541.05,538.465,0.0
53641.0,STARLINK-4588,PAYLOAD,2023-01-13 07:59:26,15.08838536,0.0001829,53.2169,352.4648,60.644,299.4735,0.00021638,3.157e-05,0.0,0 STARLINK-4588,1 53641U 22104BF  23013.33294467  .00003157  00000-0  21638-3 0  9994,2 53641  53.2169 352.4648 0001829  60.6440 299.4735 15.08838536 22414,6917.885,95.438,541.015,538.485,0.0
53641.0,STARLINK-4588,PAYLOAD,2023-01-13 22:17:55,15.08835251,0.000182,53.217,349.7861,79.5638,280.5559,0.0003733,5.657e-05,0.0,0 STARLINK-4588,1 53641U 22104BF  23013.92911196  .00005657  00000-0  37330-3 0  9997,2 53641  53.2170 349.7861 0001820  79.5638 280.5559 15.08835251 22507,6917.895,95.438,541.019,538.501,0.0
53641.0,STARLINK-4588,PAYLOAD,2023-01-14 04:39:27,15.08843179,0.000165,53.2173,348.5969,74.9951,285.1224,0.00041264,6.286e-05,0.0,0 STARLINK-4588,1 53641U 22104BF  23014.19406913  .00006286  00000-0  41264-3 0  9993,2 53641  53.2173 348.5969 0001650  74.9951 285.1224 15.08843179 21523,6917.871,95.437,540.877,538.594,0.0
53641.0,STARLINK-4588,PAYLOAD,2023-01-15 07:40:59,15.088819400000002,0.0001703,53.2176,343.5421,97.5439,262.5747,0.0015019999999999,0.00023725,0.0,0 STARLINK-4588,1 53641U 22104BF  23015.32013670  .00023725  00000-0  15020-2 0  9990,2 53641  53.2176 343.5421 0001703  97.5439 262.5747 15.08881940 21690,6917.752,95.435,540.795,538.439,0.0
53641.0,STARLINK-4588,PAYLOAD,2023-01-16 04:20:59,15.08889032,0.0001154,53.2181,339.6771,92.9878,267.1246,0.0028156999999999,0.0004487,0.0,0 STARLINK-4588,1 53641U 22104BF  23016.18124970  .00044870  00000-0  28157-2 0  9990,2 53641  53.2181 339.6771 0001154  92.9878 267.1246 15.08889032 21826,6917.731,95.434,540.394,538.797,0.0
53641.0,STARLINK-4588,PAYLOAD,2023-01-16 07:31:45,15.08900515,0.0001144,53.2181,339.0824,91.978,268.1343,0.0029158,0.000465,0.0,0 STARLINK-4588,1 53641U 22104BF  23016.31372489  .00046500  00000-0  29158-2 0  9999,2 53641  53.2181 339.0824 0001144  91.9780 268.1343 15.08900515 22863,6917.695,95.434,540.352,538.769,0.0
53641.0,STARLINK-4588,PAYLOAD,2023-01-16 21:50:15,15.08795311,0.0001355,53.218,336.4066,71.3169,288.797,0.00016253,2.297e-05,0.0,0 STARLINK-4588,1 53641U 22104BF  23016.90990398  .00002297  00000-0  16253-3 0  9997,2 53641  53.2180 336.4066 0001355  71.3169 288.7970 15.08795311 21935,6918.017,95.44,540.819,538.945,0.0
53641.0,STARLINK-4588,PAYLOAD,2023-01-17 13:44:08,15.088253,0.0001347,53.2181,333.4336,65.5139,294.5994,0.002353,0.00037344,0.0,0 STARLINK-4588,1 53641U 22104BF  23017.57232201  .00037344  00000-0  23530-2 0  9999,2 53641  53.2181 333.4336 0001347  65.5139 294.5994 15.08825300 22031,6917.925,95.438,540.722,538.8580000000001,0.0
53641.0,STARLINK-4588,PAYLOAD,2023-01-18 13:34:54,15.08866743,0.0001134,53.2176,328.9727,78.6336,281.4783,0.0010727,0.00016838,0.0,0 STARLINK-4588,1 53641U 22104BF  23018.56591290  .00016838  00000-0  10727-2 0  9994,2 53641  53.2176 328.9727 0001134  78.6336 281.4783 15.08866743 22189,6917.799,95.436,540.448,538.879,0.0
53641.0,STARLINK-4588,PAYLOAD,2023-01-19 00:42:36,15.08857276,0.0001413,53.2172,326.8927,86.5218,273.5936,0.0010236,0.00016048,0.0,0 STARLINK-4588,1 53641U 22104BF  23019.02959190  .00016048  00000-0  10236-2 0  9991,2 53641  53.2172 326.8927 0001413  86.5218 273.5936 15.08857276 22252,6917.828,95.436,540.67,538.715,0.0
53641.0,STARLINK-4588,PAYLOAD,2023-01-19 05:28:45,15.08864738,0.0001665999999999,53.2157,325.9998,83.2649,276.8532,0.0013424,0.00021155,0.0,0 STARLINK-4588,1 53641U 22104BF  23019.22830958  .00021155  00000-0  13424-2 0  9990,2 53641  53.2157 325.9998 0001666  83.2649 276.8532 15.08864738 23301,6917.805,95.436,540.822,538.5169999999999,0.0
53641.0,STARLINK-4588,PAYLOAD,2023-01-19 19:47:14,15.08850151,0.0001307,53.218,323.3233,112.002,248.1111,0.001648,0.00026045,0.0,0 STARLINK-4588,1 53641U 22104BF  23019.82447459  .00026045  00000-0  16480-2 0  9994,2 53641  53.2180 323.3233 0001307 112.0020 248.1111 15.08850151 22372,6917.849,95.437,540.619,538.81,0.0
53641.0,STARLINK-4588,PAYLOAD,2023-01-20 05:19:33,15.08845396,0.0001431,53.2175,321.5382,105.1892,254.9259,0.0014755,0.00023276,0.0,0 STARLINK-4588,1 53641U 22104BF  23020.22191634  .00023276  00000-0  14755-2 0  9997,2 53641  53.2175 321.5382 0001431 105.1892 254.9259 15.08845396 22439,6917.8640000000005,95.437,540.719,538.739,0.0
53641.0,STARLINK-4588,PAYLOAD,2023-01-20 19:38:02,15.08841072,0.0002168,53.2156,318.8631,90.0387,270.0854,0.0014309,0.00022559,0.0,0 STARLINK-4588,1 53641U 22104BF  23020.81808527  .00022559  00000-0  14309-2 0  9996,2 53641  53.2156 318.8631 0002168  90.0387 270.0854 15.08841072 22520,6917.877,95.437,541.242,538.242,0.0
53641.0,STARLINK-4588,PAYLOAD,2023-01-21 05:10:21,15.08848103,0.0001571,53.2165,317.0774,100.1927,259.9243,0.0011231,0.00017635,0.0,0 STARLINK-4588,1 53641U 22104BF  23021.21552329  .00017635  00000-0  11231-2 0  9997,2 53641  53.2165 317.0774 0001571 100.1927 259.9243 15.08848103 22585,6917.856,95.437,540.807,538.634,0.0
53641.0,STARLINK-4588,PAYLOAD,2023-01-22 05:01:06,15.08899209,0.0001519,53.2171,312.6173,101.6552,258.461,0.0015212,0.00024044,0.0,0 STARLINK-4588,1 53641U 22104BF  23022.20909913  .00024044  00000-0  15212-2 0  9997,2 53641  53.2171 312.6173 0001519 101.6552 258.4610 15.08899209 22730,6917.6990000000005,95.434,540.615,538.514,0.0
53641.0,STARLINK-4588,PAYLOAD,2023-01-22 19:19:36,15.08876551,0.0001617,53.2178,309.9434,91.4779,268.6398,0.0013308,0.00020976,0.0,0 STARLINK-4588,1 53641U 22104BF  23022.80528001  .00020976  00000-0  13308-2 0  9992,2 53641  53.2178 309.9434 0001617  91.4779 268.6398 15.08876551 22823,6917.769,95.435,540.752,538.515,0.0
53641.0,STARLINK-4588,PAYLOAD,2023-01-23 03:16:32,15.08871643,0.0001071,53.218,308.4552,70.5066,289.6042,0.00053175,8.192e-05,0.0,0 STARLINK-4588,1 53641U 22104BF  23023.13648615  .00008192  00000-0  53175-3 0  9996,2 53641  53.2180 308.4552 0001071  70.5066 289.6042 15.08871643 22873,6917.784000000001,95.436,540.39,538.908,0.0
53641.0,STARLINK-4588,PAYLOAD,2023-01-24 03:07:18,15.08872375,0.0001291,53.2193,303.9968,87.9792,272.1348,0.0014975,0.00023646,0.0,0 STARLINK-4588,1 53641U 22104BF  23024.13007642  .00023646  00000-0  14975-2 0  9991,2 53641  53.2193 303.9968 0001291  87.9792 272.1348 15.08872375 23027,6917.781,95.436,540.54,538.753,0.0
53641.0,STARLINK-4588,PAYLOAD,2023-01-25 02:58:05,15.0884024,7.77e-05,53.2184,299.5351,103.0907,257.0171,0.00070942,0.00011021,0.0,0 STARLINK-4588,1 53641U 22104BF  23025.12367965  .00011021  00000-0  70942-3 0  9999,2 53641  53.2184 299.5351 0000777 103.0907 257.0171 15.08840240 23177,6917.88,95.438,540.2819999999999,539.207,0.0
53641.0,STARLINK-4588,PAYLOAD,2023-01-25 10:55:01,15.08832615,7.92e-05,53.2181,298.048,75.1461,284.9619,0.00010989,1.461e-05,0.0,0 STARLINK-4588,1 53641U 22104BF  23025.45488262  .00001461  00000-0  10989-3 0  9991,2 53641  53.2181 298.0480 0000792  75.1461 284.9619 15.08832615 23221,6917.903,95.438,540.316,539.22,0.0
